{
  "type": "FeatureCollection",
  "features": [
    {
      "type": "Feature",
      "properties": {
        "norad_id": 37238,
        "name": "INTELSAT 17 (IS-17)",
        "group": "intelsat",
        "lat": 0.031168222611952515,
        "lon": 109.25641849941141,
        "alt_km": 35798.217657035304,
        "timestamp": "2025-12-26T20:30:45.600969+00:00",
        "meta_object_name": "INTELSAT 17 (IS-17)",
        "meta_object_id": "2010-065B",
        "meta_epoch": "2025-12-26T15:53:27.454848",
        "meta_mean_motion": 1.00272011,
        "meta_eccentricity": 0.00029351,
        "meta_inclination": 0.0297,
        "meta_ra_of_asc_node": 74.8027,
        "meta_arg_of_pericenter": 224.8642,
        "meta_mean_anomaly": 100.0752,
        "meta_ephemeris_type": 0,
        "meta_classification_type": "U",
        "meta_norad_cat_id": 37238,
        "meta_element_set_no": 999,
        "meta_rev_at_epoch": 5151,
        "meta_bstar": 0,
        "meta_mean_motion_dot": 0,
        "meta_mean_motion_ddot": 0,
        "tle_line1": "1 37238U 10065B   25360.66212332  .00000000  00000+0  00000+0 0  9994",
        "tle_line2": "2 37238   0.0297  74.8027 0002935 224.8642 100.0752  1.00272011 51519"
      },
      "geometry": {
        "type": "Point",
        "coordinates": [
          109.25641849941141,
          0.031168222611952515
        ]
      }
    },
    {
      "type": "Feature",
      "properties": {
        "norad_id": 37392,
        "name": "INTELSAT 28 (IS-28)",
        "group": "intelsat",
        "lat": -1.3016988447280036,
        "lon": 11.620728206342578,
        "alt_km": 35788.77854072619,
        "timestamp": "2025-12-26T20:30:45.600979+00:00",
        "meta_object_name": "INTELSAT 28 (IS-28)",
        "meta_object_id": "2011-016A",
        "meta_epoch": "2025-12-26T00:24:38.640960",
        "meta_mean_motion": 1.00271568,
        "meta_eccentricity": 0.00037974,
        "meta_inclination": 1.3569,
        "meta_ra_of_asc_node": 84.9113,
        "meta_arg_of_pericenter": 188.0675,
        "meta_mean_anomaly": 156.2464,
        "meta_ephemeris_type": 0,
        "meta_classification_type": "U",
        "meta_norad_cat_id": 37392,
        "meta_element_set_no": 999,
        "meta_rev_at_epoch": 5154,
        "meta_bstar": 0,
        "meta_mean_motion_dot": -2.03e-06,
        "meta_mean_motion_ddot": 0,
        "tle_line1": "1 37392U 11016A   25360.01711390 -.00000203  00000+0  00000+0 0  9995",
        "tle_line2": "2 37392   1.3569  84.9113 0003797 188.0675 156.2464  1.00271568 51540"
      },
      "geometry": {
        "type": "Point",
        "coordinates": [
          11.620728206342578,
          -1.3016988447280036
        ]
      }
    },
    {
      "type": "Feature",
      "properties": {
        "norad_id": 37834,
        "name": "INTELSAT 18 (IS-18)",
        "group": "intelsat",
        "lat": -0.021033555003367614,
        "lon": -136.745772532426,
        "alt_km": 35782.834368163574,
        "timestamp": "2025-12-26T20:30:45.600989+00:00",
        "meta_object_name": "INTELSAT 18 (IS-18)",
        "meta_object_id": "2011-056A",
        "meta_epoch": "2025-12-26T14:08:38.671008",
        "meta_mean_motion": 1.00271921,
        "meta_eccentricity": 0.00019599,
        "meta_inclination": 0.0157,
        "meta_ra_of_asc_node": 300.7511,
        "meta_arg_of_pericenter": 349.9551,
        "meta_mean_anomaly": 196.7855,
        "meta_ephemeris_type": 0,
        "meta_classification_type": "U",
        "meta_norad_cat_id": 37834,
        "meta_element_set_no": 999,
        "meta_rev_at_epoch": 5208,
        "meta_bstar": 0,
        "meta_mean_motion_dot": 7.5e-07,
        "meta_mean_motion_ddot": 0,
        "tle_line1": "1 37834U 11056A   25360.58933647  .00000075  00000+0  00000+0 0  9999",
        "tle_line2": "2 37834   0.0157 300.7511 0001959 349.9551 196.7855  1.00271921 52086"
      },
      "geometry": {
        "type": "Point",
        "coordinates": [
          -136.745772532426,
          -0.021033555003367614
        ]
      }
    },
    {
      "type": "Feature",
      "properties": {
        "norad_id": 38098,
        "name": "INTELSAT 22 (IS-22)",
        "group": "intelsat",
        "lat": 0.045854123043457116,
        "lon": 115.3622669484498,
        "alt_km": 35794.665924277644,
        "timestamp": "2025-12-26T20:30:45.601000+00:00",
        "meta_object_name": "INTELSAT 22 (IS-22)",
        "meta_object_id": "2012-011A",
        "meta_epoch": "2025-12-26T13:22:36.172704",
        "meta_mean_motion": 1.00270642,
        "meta_eccentricity": 0.00019628,
        "meta_inclination": 0.0333,
        "meta_ra_of_asc_node": 52.9825,
        "meta_arg_of_pericenter": 246.7744,
        "meta_mean_anomaly": 68.2798,
        "meta_ephemeris_type": 0,
        "meta_classification_type": "U",
        "meta_norad_cat_id": 38098,
        "meta_element_set_no": 999,
        "meta_rev_at_epoch": 545,
        "meta_bstar": 0,
        "meta_mean_motion_dot": 0,
        "meta_mean_motion_ddot": 0,
        "tle_line1": "1 38098U 12011A   25360.55736311  .00000000  00000+0  00000+0 0  9998",
        "tle_line2": "2 38098   0.0333  52.9825 0001962 246.7744  68.2798  1.00270642  5458"
      },
      "geometry": {
        "type": "Point",
        "coordinates": [
          115.3622669484498,
          0.045854123043457116
        ]
      }
    },
    {
      "type": "Feature",
      "properties": {
        "norad_id": 38356,
        "name": "INTELSAT 19 (IS-19)",
        "group": "intelsat",
        "lat": -0.014869178493941523,
        "lon": -150.7447515342581,
        "alt_km": 35780.3053576255,
        "timestamp": "2025-12-26T20:30:45.601010+00:00",
        "meta_object_name": "INTELSAT 19 (IS-19)",
        "meta_object_id": "2012-030A",
        "meta_epoch": "2025-12-26T11:22:38.784000",
        "meta_mean_motion": 1.00271978,
        "meta_eccentricity": 0.0003011,
        "meta_inclination": 0.0091,
        "meta_ra_of_asc_node": 344.0372,
        "meta_arg_of_pericenter": 288.5375,
        "meta_mean_anomaly": 159.3149,
        "meta_ephemeris_type": 0,
        "meta_classification_type": "U",
        "meta_norad_cat_id": 38356,
        "meta_element_set_no": 999,
        "meta_rev_at_epoch": 4871,
        "meta_bstar": 0,
        "meta_mean_motion_dot": -3.4e-07,
        "meta_mean_motion_ddot": 0,
        "tle_line1": "1 38356U 12030A   25360.47406000 -.00000034  00000+0  00000+0 0  9994",
        "tle_line2": "2 38356   0.0091 344.0372 0003011 288.5375 159.3149  1.00271978 48710"
      },
      "geometry": {
        "type": "Point",
        "coordinates": [
          -150.7447515342581,
          -0.014869178493941523
        ]
      }
    },
    {
      "type": "Feature",
      "properties": {
        "norad_id": 38740,
        "name": "INTELSAT 20 (IS-20)",
        "group": "intelsat",
        "lat": 0.02469895864347959,
        "lon": 111.77851144812038,
        "alt_km": 35782.799338037716,
        "timestamp": "2025-12-26T20:30:45.601021+00:00",
        "meta_object_name": "INTELSAT 20 (IS-20)",
        "meta_object_id": "2012-043A",
        "meta_epoch": "2025-12-26T02:10:38.891424",
        "meta_mean_motion": 1.00277669,
        "meta_eccentricity": 0.00019573,
        "meta_inclination": 0.0128,
        "meta_ra_of_asc_node": 61.9497,
        "meta_arg_of_pericenter": 128.5096,
        "meta_mean_anomaly": 5.5509,
        "meta_ephemeris_type": 0,
        "meta_classification_type": "U",
        "meta_norad_cat_id": 38740,
        "meta_element_set_no": 999,
        "meta_rev_at_epoch": 4901,
        "meta_bstar": 0,
        "meta_mean_motion_dot": -4e-08,
        "meta_mean_motion_ddot": 0,
        "tle_line1": "1 38740U 12043A   25360.09072791 -.00000004  00000+0  00000+0 0  9996",
        "tle_line2": "2 38740   0.0128  61.9497 0001957 128.5096   5.5509  1.00277669 49010"
      },
      "geometry": {
        "type": "Point",
        "coordinates": [
          111.77851144812038,
          0.02469895864347959
        ]
      }
    },
    {
      "type": "Feature",
      "properties": {
        "norad_id": 38749,
        "name": "INTELSAT 21 (IS-21)",
        "group": "intelsat",
        "lat": -0.0008742692718321081,
        "lon": -14.687390658608882,
        "alt_km": 35784.562644138765,
        "timestamp": "2025-12-26T20:30:45.601031+00:00",
        "meta_object_name": "INTELSAT 21 (IS-21)",
        "meta_object_id": "2012-045A",
        "meta_epoch": "2025-12-26T05:54:07.054272",
        "meta_mean_motion": 1.00271929,
        "meta_eccentricity": 0.00017513,
        "meta_inclination": 0.0183,
        "meta_ra_of_asc_node": 334.425,
        "meta_arg_of_pericenter": 292.8678,
        "meta_mean_anomaly": 218.2466,
        "meta_ephemeris_type": 0,
        "meta_classification_type": "U",
        "meta_norad_cat_id": 38749,
        "meta_element_set_no": 999,
        "meta_rev_at_epoch": 4879,
        "meta_bstar": 0,
        "meta_mean_motion_dot": -2.63e-06,
        "meta_mean_motion_ddot": 0,
        "tle_line1": "1 38749U 12045A   25360.24591498 -.00000263  00000+0  00000+0 0  9991",
        "tle_line2": "2 38749   0.0183 334.4250 0001751 292.8678 218.2466  1.00271929 48790"
      },
      "geometry": {
        "type": "Point",
        "coordinates": [
          -14.687390658608882,
          -0.0008742692718321081
        ]
      }
    }
  ]
}